(LinuxCNCNext-NC 0.6.0_ experimental_ reviewed execution plan required)
(Program fingerprint a53098ce326c478daeed7dc938a7184df5bf7daa3257bc23f3b5592c49dfd5d1)
(Program: Synthetic XYZ simulation only)
G21 G17 G8 G90 G91.1 G40 G80 G94 G61
G92.1
M5 $0
M9
G97 S0 $0
(Section 1: Three-plane arcs)
G53 G0 Z20
G53 G0 X0
G53 G0 Y0
G49
T1 M6
G21 G17 G8 G90 G91.1 G40 G80 G94 G61
G92.1
G54
G43 H1
G0 Z10
G0 X2
G0 Y1
G0 Z5
G97 S1200 $0
M3 $0
M9
M8
G0 Z0
G94 F100
G1 Z-1
G3 X1 Y2 I-1 J0
G2 X2 Y1 I0 J-1
G2 I-1 J0 P1
G18
G3 X1 Z-2 I-1 K0
G2 X2 Z-1 I0 K1
G2 I-1 K0 P1
G19
G3 Y0 Z0 J-1 K0
G2 Y1 Z-1 J0 K-1
G2 J-1 K0 P1
G4 P0.2
(Section 2: Second tool XYZ)
M5 $0
M9
G97 S0 $0
G53 G0 Z20
G53 G0 X0
G53 G0 Y0
G49
T2 M6
G21 G17 G8 G90 G91.1 G40 G80 G94 G61
G92.1
G55
G43 H3
G0 Z10
G0 X3
G0 Y4
G0 Z5
G97 S1200 $0
M3 $0
M9
M8
G94 F80
G1 X4 Y5 Z0
M5 $0
M9
G97 S0 $0
G53 G0 Z20
G53 G0 X0
G53 G0 Y0
G49
G94
M2
