(LinuxCNCNext-NC 0.6.0_ experimental_ reviewed execution plan required)
(Program fingerprint e42c4e9acaad470b5dfef0901ed92bff233780fc03112b7bdc5ca8ee495ffd9d)
(Program: Synthetic simulation only)
G21 G18 G8 G90 G91.1 G40 G80 G94 G61
G92.1
M5 $0
M9
G97 S0 $0
(Section 1: Synthetic turning)
G53 G0 X25
G53 G0 Z10
G49
T1 M6
G21 G18 G8 G90 G91.1 G40 G80 G94 G61
G92.1
G54
G43 H1
G0 Z2
G0 X12
G96 D1800 S80 $0
M3 $0
G0 X10
G95 F0.1
G1 Z0
G3 X8 Z-2 I-2 K0
G2 X10 Z0 I0 K2
G4 P0.25
M5 $0
G97 S700 $0
M4 $0
M9
M7
G94 F100
G2 I-2 K0 P1
G0 X12 Z2
M5 $0
M9
G97 S0 $0
G53 G0 X25
G53 G0 Z10
G49
G94
M2
